OBJECT_NAME,OBJECT_ID,EPOCH,MEAN_MOTION,ECCENTRICITY,INCLINATION,RA_OF_ASC_NODE,ARG_OF_PERICENTER,MEAN_ANOMALY,EPHEMERIS_TYPE,CLASSIFICATION_TYPE,NORAD_CAT_ID,ELEMENT_SET_NO,REV_AT_EPOCH,BSTAR,MEAN_MOTION_DOT,MEAN_MOTION_DDOT
CUBEBUG-2 (LO-74),2013-066AA,2026-06-20T06:41:01.474656,14.93785800,.00581791,97.8909,120.2695,19.0950,341.2432,0,U,39440,999,67745,.38585623E-3,.4167E-4,0
FUNCUBE-1 (AO-73),2013-066AE,2026-06-20T04:07:50.960640,15.09518490,.00359261,97.8278,142.6800,190.4382,169.6104,0,U,39444,999,68011,.29758663E-3,.4774E-4,0
UWE-3,2013-066AG,2026-06-20T06:58:00.511680,14.97046426,.00472111,97.8702,127.3847,310.7408,48.9719,0,U,39446,999,67804,.32274304E-3,.374E-4,0
UNISAT-6,2014-033C,2026-06-20T07:02:20.945472,14.88258560,.00461055,97.7886,323.9503,59.3614,301.2137,0,U,40012,999,64662,.24753604E-3,.2275E-4,0
DUCHIFAT-1,2014-033M,2026-06-19T15:26:40.478784,15.65018762,.00025688,98.0454,230.1491,110.7852,249.3681,0,U,40021,999,65613,.96085242E-3,.95101E-3,0
QB50P1,2014-033R,2026-06-20T07:31:29.446464,15.18299167,.00080834,98.0964,182.6784,203.9686,156.1171,0,U,40025,999,65350,.34928613E-3,.7093E-4,0
LILACSAT-2,2015-049K,2026-06-20T05:44:18.663360,15.51528982,.00057213,97.4641,208.1970,230.6823,129.3923,0,U,40908,999,59622,.24453488E-3,.14381E-3,0
FOX-1A (AO-85),2015-058D,2026-06-20T07:17:31.159968,14.90980949,.01305968,64.7745,269.2980,55.4027,305.9322,0,U,40967,999,11403,.15842202E-3,.1666E-4,0
CAS-2T & KS-1Q,2016-066G,2026-06-20T05:15:06.626880,14.44702954,.03428704,98.3821,246.9206,120.3110,243.2471,0,U,41847,999,50523,.18865447E-3,.1296E-4,0
RADFXSAT (FOX-1B),2017-073E,2026-06-20T04:25:47.254944,15.12753215,.0149318,97.4696,38.3374,318.7924,40.2110,0,U,43017,999,46584,.29340039E-3,.6691E-4,0
DIWATA-2B,2018-084H,2026-06-20T07:18:02.047104,15.00462826,.00127678,98.1188,7.6472,160.1805,199.9916,0,U,43678,999,41668,.13265502E-3,.1606E-4,0
ES'HAIL 2,2018-090A,2026-06-20T06:06:27.376128,1.00272434,.00018179,0.0157,57.1433,67.4240,261.2931,0,U,43700,999,2770,0,.139E-5,0
FOX-1CLIFF (AO-95),2018-099N,2026-06-20T02:13:19.234272,15.26762464,.00076689,97.4376,231.3282,346.8388,13.2649,0,U,43770,999,41366,.35555064E-3,.9291E-4,0
ITASAT,2018-099AE,2026-06-20T02:49:24.167712,15.19087166,.0011788,97.4025,222.5709,349.8108,10.2885,0,U,43786,999,41335,.24986772E-3,.5183E-4,0
JY1SAT (JO-97),2018-099AX,2026-06-19T16:55:58.418400,15.33718827,.00044921,97.4125,233.5484,250.8022,109.2735,0,U,43803,999,41401,.42740469E-3,.13869E-3,0
UWE-4,2018-111E,2026-06-19T17:44:17.410560,15.46259003,.00050679,97.5852,99.2477,330.7950,29.3015,0,U,43880,999,41117,.56934495E-3,.28E-3,0
TIANYAN 01,2019-093C,2026-06-20T06:37:05.180160,14.86521771,.00150123,97.7525,243.4326,77.8966,282.3931,0,U,44881,999,35187,.54078682E-4,.426E-5,0
RS-44 & BREEZE-KM R/B,2019-096E,2026-06-20T05:03:18.409536,12.79748886,.02182826,82.5221,337.6954,137.1228,224.7127,0,U,44909,999,30273,.41148216E-4,.23E-6,0
SALSAT,2020-068K,2026-06-19T22:59:40.174368,15.29832652,.00078926,97.8854,174.1914,296.5001,63.5428,0,U,46495,999,31578,.22355472E-3,.6379E-4,0
XW-3 (CAS-9),2021-131B,2026-06-20T07:36:55.651392,14.41359647,.00053886,98.4982,263.6901,89.9489,270.2317,0,U,50466,999,23556,.11703135E-3,.335E-5,0
GREENCUBE (IO-117),2022-080E,2026-06-20T07:07:43.075776,6.42583223,.00089227,70.1444,297.1634,288.8810,71.0882,0,U,53109,999,9226,0,-.3E-7,0
UMKA 1 (RS40S),2023-091G,2026-06-20T02:53:32.337888,15.20846269,.00143309,97.5045,229.8066,108.5784,251.7009,0,U,57172,999,16445,.23515809E-3,.5134E-4,0
CUBESX-HSE 3 (RS42S),2023-091N,2026-06-20T05:53:06.559584,15.31279790,.00119581,97.5086,236.8713,85.3921,274.8685,0,U,57178,999,16489,.37740527E-3,.11352E-3,0
MONITOR-3 (RS58S),2023-091Q,2026-06-20T06:38:06.293472,15.27893550,.00130425,97.5078,234.7454,91.3240,268.9494,0,U,57180,999,16476,.32479501E-3,.879E-4,0
MONITOR-4 (RS57S),2023-091S,2026-06-20T06:07:41.951424,15.27979072,.00130528,97.5072,234.6956,91.8024,268.4710,0,U,57182,999,16476,.33156878E-3,.8999E-4,0
MONITOR-2 (RS39S),2023-091U,2026-06-20T06:39:10.594080,15.18934270,.00127796,97.5067,229.5404,101.7921,258.4748,0,U,57184,999,16442,.17866665E-3,.3669E-4,0
SVYATOBOR 1 (RS60S),2023-091X,2026-06-20T06:30:21.331872,15.26659006,.00108157,97.5084,235.1054,85.3139,274.9334,0,U,57187,999,16478,.29497536E-3,.7675E-4,0
VIZARD-METEO (RS38S),2023-091Z,2026-06-20T03:27:40.591584,15.36104713,.00080861,97.5087,240.6890,68.9656,291.2452,0,U,57189,999,16514,.41233778E-3,.14444E-3,0
POLYTECH-UNIVERSE 3 (RS46S),2023-091AB,2026-06-20T05:42:54.399168,15.19137280,.00169958,97.5043,229.0059,117.1032,243.1939,0,U,57191,999,16441,.21106778E-3,.4381E-4,0
UTMN 2 (RS27S),2023-091AP,2026-06-20T06:16:01.848000,15.32114956,.00090989,97.5082,238.5250,74.7319,285.4927,0,U,57203,999,16501,.36027511E-3,.11109E-3,0
