CUBEBUG-2 (LO-74)       
1 39440U 13066AA  26171.27848929  .00004167  00000+0  38586-3 0  9992
2 39440  97.8909 120.2695 0058179  19.0950 341.2432 14.93785800677456
FUNCUBE-1 (AO-73)       
1 39444U 13066AE  26171.17211760  .00004774  00000+0  29759-3 0  9998
2 39444  97.8278 142.6800 0035926 190.4382 169.6104 15.09518490680115
UWE-3                   
1 39446U 13066AG  26171.29028370  .00003740  00000+0  32274-3 0  9994
2 39446  97.8702 127.3847 0047211 310.7408  48.9719 14.97046426678047
UNISAT-6                
1 40012U 14033C   26171.29329798  .00002275  00000+0  24754-3 0  9994
2 40012  97.7886 323.9503 0046105  59.3614 301.2137 14.88258560646621
DUCHIFAT-1              
1 40021U 14033M   26170.64352406  .00095101  00000+0  96085-3 0  9990
2 40021  98.0454 230.1491 0002568 110.7852 249.3681 15.65018762656139
QB50P1                  
1 40025U 14033R   26171.31353526  .00007093  00000+0  34929-3 0  9995
2 40025  98.0964 182.6784 0008083 203.9686 156.1171 15.18299167653508
LILACSAT-2              
1 40908U 15049K   26171.23910490  .00014381  00000+0  24453-3 0  9992
2 40908  97.4641 208.1970 0005721 230.6823 129.3923 15.51528982596229
FOX-1A (AO-85)          
1 40967U 15058D   26171.30383287  .00001666  00000+0  15842-3 0  9997
2 40967  64.7745 269.2980 0130596  55.4027 305.9322 14.90980949114030
CAS-2T & KS-1Q          
1 41847U 16066G   26171.21882670  .00001296  00000+0  18865-3 0  9992
2 41847  98.3821 246.9206 0342870 120.3110 243.2471 14.44702954505236
RADFXSAT (FOX-1B)       
1 43017U 17073E   26171.18457471  .00006691  00000+0  29340-3 0  9999
2 43017  97.4696  38.3374 0149318 318.7924  40.2110 15.12753215465843
DIWATA-2B               
1 43678U 18084H   26171.30419036  .00001606  00000+0  13266-3 0  9995
2 43678  98.1188   7.6472 0012767 160.1805 199.9916 15.00462826416688
ES'HAIL 2               
1 43700U 18090A   26171.25448352  .00000139  00000+0  00000+0 0  9993
2 43700   0.0157  57.1433 0001817  67.4240 261.2931  1.00272434 27705
FOX-1CLIFF (AO-95)      
1 43770U 18099N   26171.09258373  .00009291  00000+0  35555-3 0  9998
2 43770  97.4376 231.3282 0007668 346.8388  13.2649 15.26762464413665
ITASAT                  
1 43786U 18099AE  26171.11764083  .00005183  00000+0  24987-3 0  9991
2 43786  97.4025 222.5709 0011788 349.8108  10.2885 15.19087166413356
JY1SAT (JO-97)          
1 43803U 18099AX  26170.70553725  .00013869  00000+0  42740-3 0  9991
2 43803  97.4125 233.5484 0004492 250.8022 109.2735 15.33718827414017
UWE-4                   
1 43880U 18111E   26170.73909040  .00028000  00000+0  56934-3 0  9992
2 43880  97.5852  99.2477 0005067 330.7950  29.3015 15.46259003411173
TIANYAN 01              
1 44881U 19093C   26171.27575440  .00000426  00000+0  54079-4 0  9998
2 44881  97.7525 243.4326 0015012  77.8966 282.3931 14.86521771351872
RS-44 & BREEZE-KM R/B   
1 44909U 19096E   26171.21062974  .00000023  00000+0  41148-4 0  9995
2 44909  82.5221 337.6954 0218282 137.1228 224.7127 12.79748886302732
SALSAT                  
1 46495U 20068K   26170.95810387  .00006379  00000+0  22355-3 0  9995
2 46495  97.8854 174.1914 0007892 296.5001  63.5428 15.29832652315782
XW-3 (CAS-9)            
1 50466U 21131B   26171.31731078  .00000335  00000+0  11703-3 0  9991
2 50466  98.4982 263.6901 0005388  89.9489 270.2317 14.41359647235568
GREENCUBE (IO-117)      
1 53109U 22080E   26171.29702634 -.00000003  00000+0  00000+0 0  9992
2 53109  70.1444 297.1634 0008922 288.8810  71.0882  6.42583223 92268
UMKA 1 (RS40S)          
1 57172U 23091G   26171.12051317  .00005134  00000+0  23516-3 0  9996
2 57172  97.5045 229.8066 0014330 108.5784 251.7009 15.20846269164458
CUBESX-HSE 3 (RS42S)    
1 57178U 23091N   26171.24521481  .00011352  00000+0  37741-3 0  9993
2 57178  97.5086 236.8713 0011958  85.3921 274.8685 15.31279790164899
MONITOR-3 (RS58S)       
1 57180U 23091Q   26171.27646173  .00008790  00000+0  32480-3 0  9992
2 57180  97.5078 234.7454 0013042  91.3240 268.9494 15.27893550164768
MONITOR-4 (RS57S)       
1 57182U 23091S   26171.25534666  .00008999  00000+0  33157-3 0  9998
2 57182  97.5072 234.6956 0013052  91.8024 268.4710 15.27979072164766
MONITOR-2 (RS39S)       
1 57184U 23091U   26171.27720595  .00003669  00000+0  17867-3 0  9999
2 57184  97.5067 229.5404 0012779 101.7921 258.4748 15.18934270164429
SVYATOBOR 1 (RS60S)     
1 57187U 23091X   26171.27108023  .00007675  00000+0  29498-3 0  9992
2 57187  97.5084 235.1054 0010815  85.3139 274.9334 15.26659006164785
VIZARD-METEO (RS38S)    
1 57189U 23091Z   26171.14421981  .00014444  00000+0  41234-3 0  9995
2 57189  97.5087 240.6890 0008086  68.9656 291.2452 15.36104713165142
POLYTECH-UNIVERSE 3 (R*)
1 57191U 23091AB  26171.23812962  .00004381  00000+0  21107-3 0  9997
2 57191  97.5043 229.0059 0016995 117.1032 243.1939 15.19137280164419
UTMN 2 (RS27S)          
1 57203U 23091AP  26171.26113250  .00011109  00000+0  36028-3 0  9992
2 57203  97.5082 238.5250 0009098  74.7319 285.4927 15.32114956165019
